#aV2012 11 30  0  0  0.00000000     288 DD+AD WGS84 FIT  NGA
## 1716 432000.00000000   300.00000000 56261 0.0000000000000
+   31     1  2  3  4  5  6  7  8  9 10 11 12 13 14 15 16 17
+         18 19 20 21 22 23 24 25 26 28 29 30 31 32  0  0  0
+          0  0  0  0  0  0  0  0  0  0  0  0  0  0  0  0  0
+          0  0  0  0  0  0  0  0  0  0  0  0  0  0  0  0  0
+          0  0  0  0  0  0  0  0  0  0  0  0  0  0  0  0  0
++         2  2  2  2  2  2  2  2  2  2  2  2  2  2  2  2  2
++         2  2  2  2  2  2  2  2  2  2  2  2  2  2  2  0  0
++         0  0  0  0  0  0  0  0  0  0  0  0  0  0  0  0  0
++         0  0  0  0  0  0  0  0  0  0  0  0  0  0  0  0  0
++         0  0  0  0  0  0  0  0  0  0  0  0  0  0  0  0  0
%c cc cc ccc ccc cccc cccc cccc cccc ccccc ccccc ccccc ccccc
%c cc cc ccc ccc cccc cccc cccc cccc ccccc ccccc ccccc ccccc
%f  0.0000000  0.000000000  0.00000000000  0.000000000000000
%f  0.0000000  0.000000000  0.00000000000  0.000000000000000
%i    0    0    0    0      0      0      0      0         0
%i    0    0    0    0      0      0      0      0         0
/*      NGA, ST. LOUIS,MO.                                  
/*   EPHEMERIS COMPUTED FROM  1 DAYS OF DATA
/*   EPOCHA SMOOTHER  
/* CCCCCCCCCCCCCCCCCCCCCCCCCCCCCCCCCCCCCCCCCCCCCCCCCCCCCCCCC
*  2012 11 30 14  5  0.00000000                                                 
P  1  17047.034609   3727.992673  20017.937129    285.057867                    
V  1   9426.339976  23671.870925 -12360.853419      0.019451                    
P  2 -14665.901319 -21750.404920  -5476.997045    410.369867                    
V  2   -286.646400  -7688.236255  29893.022412      0.010424                    
P  3  19860.296873  10369.498770 -14944.158556    135.420464                    
V  3 -18002.095185   3015.156396 -22356.465419      0.051479                    
P  4  -4619.663527 -24640.039358   8030.551357     61.429271                    
V  4   7672.960502   8268.593935  29091.097341      0.112128                    
P  5 -10704.903925 -11415.265117 -21478.865964   -369.908171                    
V  5  16285.815801 -21859.821878   3647.666180     -0.023919                    
P  6  14668.634871  13499.648106 -17608.705133    440.039159                    
V  6 -22553.573465    875.311885 -17689.026280     -0.126304                    
P  7  10424.684223 -12067.868784 -21146.024059    151.600807                    
V  7  11270.304524  24505.610020  -8688.869118      0.044346                    
P  8   2899.833092 -21593.963978 -14656.324716      3.170609                    
V  8   7438.222911  17517.538435 -24743.476717      0.002050                    
P  9 -17072.405785 -11249.412051  16369.387757    203.339044                    
V  9  -7599.378072 -20500.828902 -21365.153252      0.026562                    
P 10   5028.711934 -22473.728233 -13139.368407    -60.375897                    
V 10  12165.413736 -11415.226759  25113.624081     -0.014557                    
P 11  21276.145935   7973.013677  13552.596713   -328.501599                    
V 11   8856.608821  16137.580749 -22393.862478     -0.039228                    
P 12 -18995.632469   5400.122597  17646.755940    104.381122                    
V 12  12579.396812 -18668.140963  19419.950734      0.020246                    
P 13  21166.180308  -5978.621224 -15103.097587    163.555886                    
V 13  18197.568713   5116.520451  23579.385630     -0.027224                    
P 14  -4126.142031  14439.460186  22097.667019    217.568001                    
V 14 -27107.941218  -4883.551767  -2026.446602      0.005556                    
P 15 -26045.335424  -4618.465367  -3582.956490   -100.964799                    
V 15   4742.250414  -2761.001694 -30771.657104     -0.009993                    
P 16   9777.217794  11223.810032 -21980.697721   -250.246648                    
V 16 -17648.235620  21556.930899   3465.027073     -0.004881                    
P 17   2709.424433 -14994.637357  21941.904975     73.797122                    
V 17  27104.135545   4007.192777   -854.877282     -0.035867                    
P 18 -16250.483958  20703.737128  -1206.101342    227.122112                    
V 18  -2170.963225  -4067.148552 -31202.663732      0.018326                    
P 19  24745.856702   8707.306632  -5440.646934   -326.805772                    
V 19  -7063.896402   1032.771719 -30513.127476     -0.033435                    
P 20  19429.150280  -7637.755613  16207.138530     74.947854                    
V 20  -9340.851257  19005.999265  20021.102185      0.011993                    
P 21  -8412.553909  15787.296561 -18939.902721   -265.440748                    
V 21 -12171.527938 -22435.786317 -13493.143360     -0.023583                    
P 22  -7277.493760  23275.392439  10551.268201    152.362946                    
V 22 -10621.565088   8630.749811 -26963.977570      0.006482                    
P 23  26477.555310    340.199240  -3864.610464    138.770637                    
V 23   4602.027865   3092.694944  30947.235951     -0.038333                    
P 24 -17630.966489  -7639.298052  18345.049541      3.148021                    
V 24  -8273.144547 -21824.202265 -17030.020441     -0.006005                    
P 25 -18903.791593  16531.940464   8499.018573     53.840673                    
V 25   4371.697310 -10208.938246  29521.242790      0.020646                    
P 26 -18863.599506 -13279.216862 -14096.150407   -191.594519                    
V 26  16607.701467   1947.092167 -24847.640971      0.135771                    
P 28  11017.496408 -22693.929768   8522.513560    209.540274                    
V 28   7919.529553  -6545.645039 -29870.925480      0.035739                    
P 29 -22174.291681   5963.261086 -13266.392846    382.519927                    
V 29 -16422.440634  -4676.327018  25288.210187      0.039826                    
P 30   2289.522664  20229.652565 -17425.971480   -300.904572                    
V 30 -12124.720927  17735.808652  19369.774030      0.138748                    
P 31   6854.000942  25043.425767   5092.412215    289.689602                    
V 31  -4565.989865  -4862.550508  31483.660151      0.021127                    
P 32  16333.930598   3687.655649  20671.483497   -512.636782                    
V 32 -16160.009278  20439.369542   9701.359811     -0.034800                    
EOF
